start=new Date('2022-10-09T00:00:00.000Z').valueOf();
sats=[{"OBJECT_NAME":"STARLINK-4520","RA_OF_ASC_NODE":"325.5754","EPHEMERIS_TYPE":"0","ARG_OF_PERICENTER":"50.1261","COUNTRY_CODE":"US","MEAN_MOTION_DOT":"0.00026757","OBJECT_TYPE":"PAYLOAD","DECAY_DATE":null,"INCLINATION":"53.2164","GP_ID":"214508948","TIME_SYSTEM":"UTC","BSTAR":"0.00169310000000","PERIAPSIS":"538.452","SITE":"AFETR","TLE_LINE2":"2 53400  53.2164 325.5754 0001890  50.1261  18.9850 15.08835299  1304","NORAD_CAT_ID":"53400","EPOCH":"2022-10-08T22:00:00.999936","MEAN_ELEMENT_THEORY":"SGP4","APOAPSIS":"541.067","CLASSIFICATION_TYPE":"U","PERIOD":"95.438","ELEMENT_SET_NO":"999","MEAN_MOTION":"15.08835299","TLE_LINE1":"1 53400U 22097N   22281.91667824  .00026757  00000-0  16931-2 0  9999","FILE":"3596607","SEMIMAJOR_AXIS":"6917.895","REV_AT_EPOCH":"130","REF_FRAME":"TEME","MEAN_MOTION_DDOT":"0.0000000000000","RCS_SIZE":"LARGE","CENTER_NAME":"EARTH","MEAN_ANOMALY":"18.9850","OBJECT_ID":"2022-097N","LAUNCH_DATE":"2022-08-10","ECCENTRICITY":"0.00018900"},{"EPOCH":"2022-10-08T22:00:00.999936","MEAN_ELEMENT_THEORY":"SGP4","APOAPSIS":"540.992","CLASSIFICATION_TYPE":"U","ELEMENT_SET_NO":"999","PERIOD":"95.439","MEAN_MOTION":"15.08810453","TLE_LINE1":"1 53401U 22097P   22281.91667824  .00024195  00000-0  15343-2 0  9990","FILE":"3596607","SEMIMAJOR_AXIS":"6917.971","REV_AT_EPOCH":"130","REF_FRAME":"TEME","MEAN_MOTION_DDOT":"0.0000000000000","RCS_SIZE":"LARGE","OBJECT_ID":"2022-097P","CENTER_NAME":"EARTH","MEAN_ANOMALY":"301.9491","LAUNCH_DATE":"2022-08-10","ECCENTRICITY":"0.00016710","OBJECT_NAME":"STARLINK-4525","RA_OF_ASC_NODE":"325.5818","EPHEMERIS_TYPE":"0","COUNTRY_CODE":"US","ARG_OF_PERICENTER":"47.1491","MEAN_MOTION_DOT":"0.00024195","OBJECT_TYPE":"PAYLOAD","DECAY_DATE":null,"INCLINATION":"53.2182","GP_ID":"214508369","BSTAR":"0.00153430000000","TIME_SYSTEM":"UTC","PERIAPSIS":"538.680","SITE":"AFETR","TLE_LINE2":"2 53401  53.2182 325.5818 0001671  47.1491 301.9491 15.08810453  1305","NORAD_CAT_ID":"53401"},{"INCLINATION":"53.2175","DECAY_DATE":null,"OBJECT_TYPE":"PAYLOAD","MEAN_MOTION_DOT":"0.00034993","COUNTRY_CODE":"US","ARG_OF_PERICENTER":"38.6890","EPHEMERIS_TYPE":"0","RA_OF_ASC_NODE":"325.5784","OBJECT_NAME":"STARLINK-4499","NORAD_CAT_ID":"53402","TLE_LINE2":"2 53402  53.2175 325.5784 0001493  38.6890  50.4122 15.08820656  1303","SITE":"AFETR","PERIAPSIS":"538.772","TIME_SYSTEM":"UTC","BSTAR":"0.00220700000000","GP_ID":"214509109","TLE_LINE1":"1 53402U 22097Q   22281.91667824  .00034993  00000-0  22070-2 0  9993","MEAN_MOTION":"15.08820656","ELEMENT_SET_NO":"999","PERIOD":"95.439","APOAPSIS":"540.837","CLASSIFICATION_TYPE":"U","MEAN_ELEMENT_THEORY":"SGP4","EPOCH":"2022-10-08T22:00:00.999936","ECCENTRICITY":"0.00014930","LAUNCH_DATE":"2022-08-10","OBJECT_ID":"2022-097Q","CENTER_NAME":"EARTH","MEAN_ANOMALY":"50.4122","RCS_SIZE":"LARGE","REF_FRAME":"TEME","MEAN_MOTION_DDOT":"0.0000000000000","SEMIMAJOR_AXIS":"6917.940","REV_AT_EPOCH":"130","FILE":"3596607"},{"TLE_LINE1":"1 53403U 22097R   22281.91667824  .00000068  00000-0  22379-4 0  9994","MEAN_MOTION":"15.08828151","PERIOD":"95.438","ELEMENT_SET_NO":"999","APOAPSIS":"540.907","CLASSIFICATION_TYPE":"U","MEAN_ELEMENT_THEORY":"SGP4","EPOCH":"2022-10-08T22:00:00.999936","ECCENTRICITY":"0.00016270","LAUNCH_DATE":"2022-08-10","MEAN_ANOMALY":"330.7457","CENTER_NAME":"EARTH","OBJECT_ID":"2022-097R","RCS_SIZE":"LARGE","REF_FRAME":"TEME","MEAN_MOTION_DDOT":"0.0000000000000","SEMIMAJOR_AXIS":"6917.917","REV_AT_EPOCH":"130","FILE":"3596607","INCLINATION":"53.2165","DECAY_DATE":null,"OBJECT_TYPE":"PAYLOAD","COUNTRY_CODE":"US","MEAN_MOTION_DOT":"0.00000068","ARG_OF_PERICENTER":"53.1825","EPHEMERIS_TYPE":"0","RA_OF_ASC_NODE":"325.5778","OBJECT_NAME":"STARLINK-4507","NORAD_CAT_ID":"53403","TLE_LINE2":"2 53403  53.2165 325.5778 0001627  53.1825 330.7457 15.08828151  1308","SITE":"AFETR","PERIAPSIS":"538.656","TIME_SYSTEM":"UTC","BSTAR":"0.00002237900000","GP_ID":"214508626"},{"OBJECT_NAME":"STARLINK-4509","RA_OF_ASC_NODE":"316.2406","EPHEMERIS_TYPE":"0","ARG_OF_PERICENTER":"38.7337","COUNTRY_CODE":"US","MEAN_MOTION_DOT":"-0.01062455","DECAY_DATE":null,"OBJECT_TYPE":"PAYLOAD","INCLINATION":"53.2174","GP_ID":"214509182","BSTAR":"-0.04189600000000","TIME_SYSTEM":"UTC","PERIAPSIS":"480.627","SITE":"AFETR","TLE_LINE2":"2 53404  53.2174 316.2406 0001837  38.7337 175.8416 15.27968862  1302","NORAD_CAT_ID":"53404","EPOCH":"2022-10-08T22:00:00.999936","MEAN_ELEMENT_THEORY":"SGP4","APOAPSIS":"483.147","CLASSIFICATION_TYPE":"U","ELEMENT_SET_NO":"999","PERIOD":"94.243","MEAN_MOTION":"15.27968862","TLE_LINE1":"1 53404U 22097S   22281.91667824 -.01062455  00000-0 -41896-1 0  9998","FILE":"3596607","SEMIMAJOR_AXIS":"6860.022","REV_AT_EPOCH":"130","REF_FRAME":"TEME","MEAN_MOTION_DDOT":"0.0000000000000","RCS_SIZE":"LARGE","CENTER_NAME":"EARTH","OBJECT_ID":"2022-097S","MEAN_ANOMALY":"175.8416","LAUNCH_DATE":"2022-08-10","ECCENTRICITY":"0.00018370"},{"OBJECT_TYPE":"PAYLOAD","DECAY_DATE":null,"COUNTRY_CODE":"US","MEAN_MOTION_DOT":"0.00005229","ARG_OF_PERICENTER":"58.6109","INCLINATION":"53.2190","RA_OF_ASC_NODE":"325.5791","OBJECT_NAME":"STARLINK-4510","EPHEMERIS_TYPE":"0","SITE":"AFETR","PERIAPSIS":"538.675","NORAD_CAT_ID":"53405","TLE_LINE2":"2 53405  53.2190 325.5791 0001613  58.6109  50.5079 15.08825244  1300","TIME_SYSTEM":"UTC","BSTAR":"0.00034654000000","GP_ID":"214508786","PERIOD":"95.438","ELEMENT_SET_NO":"999","TLE_LINE1":"1 53405U 22097T   22281.91667824  .00005229  00000-0  34654-3 0  9998","MEAN_MOTION":"15.08825244","MEAN_ELEMENT_THEORY":"SGP4","EPOCH":"2022-10-08T22:00:00.999936","APOAPSIS":"540.906","CLASSIFICATION_TYPE":"U","OBJECT_ID":"2022-097T","CENTER_NAME":"EARTH","MEAN_ANOMALY":"50.5079","RCS_SIZE":"LARGE","ECCENTRICITY":"0.00016130","LAUNCH_DATE":"2022-08-10","FILE":"3596607","REF_FRAME":"TEME","MEAN_MOTION_DDOT":"0.0000000000000","SEMIMAJOR_AXIS":"6917.925","REV_AT_EPOCH":"130"},{"INCLINATION":"53.2174","MEAN_MOTION_DOT":"-0.01064168","COUNTRY_CODE":"US","ARG_OF_PERICENTER":"36.6727","OBJECT_TYPE":"PAYLOAD","DECAY_DATE":null,"EPHEMERIS_TYPE":"0","OBJECT_NAME":"STARLINK-4533","RA_OF_ASC_NODE":"316.2786","TLE_LINE2":"2 53406  53.2174 316.2786 0001727  36.6727 231.7322 15.29440002  1304","NORAD_CAT_ID":"53406","PERIAPSIS":"476.303","SITE":"AFETR","GP_ID":"214509343","BSTAR":"-0.04010700000000","TIME_SYSTEM":"UTC","MEAN_MOTION":"15.29440002","TLE_LINE1":"1 53406U 22097U   22281.91667824 -.01064168  00000-0 -40107-1 0  9997","PERIOD":"94.152","ELEMENT_SET_NO":"999","APOAPSIS":"478.671","CLASSIFICATION_TYPE":"U","EPOCH":"2022-10-08T22:00:00.999936","MEAN_ELEMENT_THEORY":"SGP4","LAUNCH_DATE":"2022-08-10","ECCENTRICITY":"0.00017270","RCS_SIZE":"LARGE","CENTER_NAME":"EARTH","OBJECT_ID":"2022-097U","MEAN_ANOMALY":"231.7322","SEMIMAJOR_AXIS":"6855.622","REV_AT_EPOCH":"130","REF_FRAME":"TEME","MEAN_MOTION_DDOT":"0.0000000000000","FILE":"3596607"},{"APOAPSIS":"352.485","CLASSIFICATION_TYPE":"U","MEAN_ELEMENT_THEORY":"SGP4","EPOCH":"2022-10-08T22:00:00.999936","TLE_LINE1":"1 53407U 22097V   22281.91667824  .00020893  00000-0  15299-3 0  9998","MEAN_MOTION":"15.73182892","PERIOD":"91.534","ELEMENT_SET_NO":"999","REF_FRAME":"TEME","MEAN_MOTION_DDOT":"0.0000000000000","SEMIMAJOR_AXIS":"6727.944","REV_AT_EPOCH":"130","FILE":"3596607","ECCENTRICITY":"0.00039780","LAUNCH_DATE":"2022-08-10","MEAN_ANOMALY":"36.0523","OBJECT_ID":"2022-097V","CENTER_NAME":"EARTH","RCS_SIZE":"LARGE","EPHEMERIS_TYPE":"0","RA_OF_ASC_NODE":"312.5159","OBJECT_NAME":"STARLINK-4537","INCLINATION":"53.2157","OBJECT_TYPE":"PAYLOAD","DECAY_DATE":null,"MEAN_MOTION_DOT":"0.00020893","COUNTRY_CODE":"US","ARG_OF_PERICENTER":"2.9818","BSTAR":"0.00015299000000","TIME_SYSTEM":"UTC","GP_ID":"214508209","NORAD_CAT_ID":"53407","TLE_LINE2":"2 53407  53.2157 312.5159 0003978   2.9818  36.0523 15.73182892  1304","SITE":"AFETR","PERIAPSIS":"347.133"},{"MEAN_ANOMALY":"179.7961","OBJECT_ID":"2022-097W","CENTER_NAME":"EARTH","RCS_SIZE":"LARGE","ECCENTRICITY":"0.00014690","LAUNCH_DATE":"2022-08-10","FILE":"3596607","REF_FRAME":"TEME","MEAN_MOTION_DDOT":"0.0000000000000","SEMIMAJOR_AXIS":"6858.273","REV_AT_EPOCH":"130","PERIOD":"94.207","ELEMENT_SET_NO":"999","TLE_LINE1":"1 53408U 22097W   22281.91667824 -.01062554  00000-0 -41156-1 0  9991","MEAN_MOTION":"15.28553504","MEAN_ELEMENT_THEORY":"SGP4","EPOCH":"2022-10-08T22:00:00.999936","APOAPSIS":"481.145","CLASSIFICATION_TYPE":"U","SITE":"AFETR","PERIAPSIS":"479.130","NORAD_CAT_ID":"53408","TLE_LINE2":"2 53408  53.2175 316.2555 0001469  56.8307 179.7961 15.28553504  1303","BSTAR":"-0.04115600000000","TIME_SYSTEM":"UTC","GP_ID":"214508949","DECAY_DATE":null,"OBJECT_TYPE":"PAYLOAD","COUNTRY_CODE":"US","MEAN_MOTION_DOT":"-0.01062554","ARG_OF_PERICENTER":"56.8307","INCLINATION":"53.2175","RA_OF_ASC_NODE":"316.2555","OBJECT_NAME":"STARLINK-4491","EPHEMERIS_TYPE":"0"},{"OBJECT_NAME":"STARLINK-4490","RA_OF_ASC_NODE":"312.5130","EPHEMERIS_TYPE":"0","ARG_OF_PERICENTER":"8.4111","COUNTRY_CODE":"US","MEAN_MOTION_DOT":"0.00063416","DECAY_DATE":null,"OBJECT_TYPE":"PAYLOAD","INCLINATION":"53.2163","GP_ID":"214508370","TIME_SYSTEM":"UTC","BSTAR":"0.00045352000000","PERIAPSIS":"347.479","SITE":"AFETR","TLE_LINE2":"2 53409  53.2163 312.5130 0003560   8.4111  31.8339 15.73160019  1301","NORAD_CAT_ID":"53409","EPOCH":"2022-10-08T22:00:00.999936","MEAN_ELEMENT_THEORY":"SGP4","CLASSIFICATION_TYPE":"U","APOAPSIS":"352.269","PERIOD":"91.536","ELEMENT_SET_NO":"999","MEAN_MOTION":"15.73160019","TLE_LINE1":"1 53409U 22097X   22281.91667824  .00063416  00000-0  45352-3 0  9991","FILE":"3596607","REV_AT_EPOCH":"130","SEMIMAJOR_AXIS":"6728.009","MEAN_MOTION_DDOT":"0.0000000000000","REF_FRAME":"TEME","RCS_SIZE":"LARGE","OBJECT_ID":"2022-097X","CENTER_NAME":"EARTH","MEAN_ANOMALY":"31.8339","LAUNCH_DATE":"2022-08-10","ECCENTRICITY":"0.00035600"}];
